ORBCOMM FM103           
1 40091U 14040F   25032.77657312  .00001630  00000+0  38975-3 0  9997
2 40091  47.0061 297.1275 0001896  10.0973 349.9950 14.57763655544349
ORBCOMM FM114           
1 41179U 15081A   25032.87143238  .00001545  00000+0  37108-3 0  9991
2 41179  47.0009 205.8107 0001560 106.8850 253.2207 14.57820383484724
ORBCOMM FM119           
1 41180U 15081B   25032.44123614  .00001814  00000+0  42992-3 0  9998
2 41180  47.0004 117.1017 0001331 208.6922 151.3890 14.57737555485919
ORBCOMM FM105           
1 41181U 15081C   25032.71106851  .00000836  00000+0  28223-3 0  9997
2 41181  47.0014 107.6961 0000703  60.9758 299.1193 14.45007459481150
ORBCOMM FM110           
1 41182U 15081D   25032.91516509  .00002827  00000+0  64885-3 0  9991
2 41182  46.9995 204.9686 0002752 238.5362 121.5255 14.57780841484608
ORBCOMM FM118           
1 41183U 15081E   25032.69200047  .00002257  00000+0  52616-3 0  9990
2 41183  47.0018 206.4398 0003158 234.2149 125.8443 14.57705849484679
ORBCOMM FM112           
1 41184U 15081F   25032.69198817  .00002665  00000+0  61428-3 0  9996
2 41184  46.9979 115.0899 0000689 212.7103 147.3740 14.57731527485898
ORBCOMM FM113           
1 41185U 15081G   25032.60015485  .00002523  00000+0  58365-3 0  9996
2 41185  46.9997 115.8263 0001008 208.6009 151.4822 14.57729752485868
